{
    "links": {
        "self": "http://www.neowsapp.com/rest/v1/neo/3463234?api_key=iIulBulltgU6a56xZRHN4H3l9WmuAYTsLGpBGhQ2"
    },
    "id": "3463234",
    "neo_reference_id": "3463234",
    "name": "(2009 MD)",
    "designation": "2009 MD",
    "nasa_jpl_url": "http://ssd.jpl.nasa.gov/sbdb.cgi?sstr=3463234",
    "absolute_magnitude_h": 23.0,
    "estimated_diameter": {
        "kilometers": {
            "estimated_diameter_min": 0.0667659413,
            "estimated_diameter_max": 0.1492931834
        },
        "meters": {
            "estimated_diameter_min": 66.7659413495,
            "estimated_diameter_max": 149.2931834393
        },
        "miles": {
            "estimated_diameter_min": 0.0414864197,
            "estimated_diameter_max": 0.0927664547
        },
        "feet": {
            "estimated_diameter_min": 219.0483710172,
            "estimated_diameter_max": 489.807047955
        }
    },
    "is_potentially_hazardous_asteroid": false,
    "close_approach_data": [
        {
            "close_approach_date": "2009-06-21",
            "close_approach_date_full": "2009-Jun-21 20:11",
            "epoch_date_close_approach": 1245615060000,
            "relative_velocity": {
                "kilometers_per_second": "8.7494631442",
                "kilometers_per_hour": "31498.0673190782",
                "miles_per_hour": "19571.674107235"
            },
            "miss_distance": {
                "astronomical": "0.143082472",
                "lunar": "55.659081608",
                "kilometers": "21404833.04553464",
                "miles": "13300346.509232432"
            },
            "orbiting_body": "Earth"
        }
    ],
    "orbital_data": {
        "orbit_id": "9",
        "orbit_determination_date": "2017-04-06 09:00:25",
        "first_observation_date": "2009-06-17",
        "last_observation_date": "2009-06-30",
        "data_arc_in_days": 13,
        "observations_used": 28,
        "orbit_uncertainty": "8",
        "minimum_orbit_intersection": ".0878169",
        "jupiter_tisserand_invariant": "3.350",
        "epoch_osculation": "2455004.5",
        "eccentricity": ".5283963754958771",
        "semi_major_axis": "2.33117483362971",
        "inclination": "10.45398996291534",
        "ascending_node_longitude": "109.897997904381",
        "orbital_period": "1300.051916544044",
        "perihelion_distance": "1.099390500892567",
        "perihelion_argument": "166.9614236614404",
        "aphelion_distance": "3.562959166366854",
        "perihelion_time": "2455005.129154370550",
        "mean_anomaly": "359.8257795934795",
        "mean_motion": ".2769120182192384",
        "equinox": "J2000",
        "orbit_class": {
            "orbit_class_type": "AMO",
            "orbit_class_description": "Near-Earth asteroid orbits similar to that of 1221 Amor",
            "orbit_class_range": "1.017 AU < q (perihelion) < 1.3 AU"
        }
    },
    "is_sentry_object": false
}